start=new Date('2022-02-20T00:00:00.000Z').valueOf();
sats=[{"NORAD_CAT_ID":"48412","MEAN_ELEMENT_THEORY":"SGP4","PERIOD":"95.594","GP_ID":"196428662","RCS_SIZE":"LARGE","FILE":"3308986","TLE_LINE2":"2 48412  53.0550  90.0897 0001696  50.6393 214.5508 15.06374388  3575","REF_FRAME":"TEME","CLASSIFICATION_TYPE":"U","SITE":"AFETR","OBJECT_TYPE":"PAYLOAD","MEAN_MOTION_DDOT":"0.0000000000000","ECCENTRICITY":"0.00016960","DECAY_DATE":null,"SEMIMAJOR_AXIS":"6925.427","REV_AT_EPOCH":"357","ARG_OF_PERICENTER":"50.6393","ELEMENT_SET_NO":"999","MEAN_MOTION_DOT":"0.00012080","EPOCH":"2022-02-19T22:00:00.999936","APOAPSIS":"548.467","CENTER_NAME":"EARTH","PERIAPSIS":"546.118","BSTAR":"0.00082906000000","INCLINATION":"53.0550","MEAN_MOTION":"15.06374388","TLE_LINE1":"1 48412U 21038BM  22050.91667824  .00012080  00000-0  82906-3 0  9994","OBJECT_NAME":"STARLINK-2581","OBJECT_ID":"2021-038BM","MEAN_ANOMALY":"214.5508","RA_OF_ASC_NODE":"90.0897","COUNTRY_CODE":"US","EPHEMERIS_TYPE":"0","TIME_SYSTEM":"UTC","LAUNCH_DATE":"2021-05-04"},{"TLE_LINE2":"2 48428  53.0562 345.3822 0001718  58.0693 302.0463 15.06399387 43662","RCS_SIZE":"LARGE","FILE":"3308986","PERIOD":"95.592","GP_ID":"196428163","NORAD_CAT_ID":"48428","MEAN_ELEMENT_THEORY":"SGP4","SEMIMAJOR_AXIS":"6925.350","REV_AT_EPOCH":"4366","DECAY_DATE":null,"ECCENTRICITY":"0.00017180","OBJECT_TYPE":"PAYLOAD","MEAN_MOTION_DDOT":"0.0000000000000","REF_FRAME":"TEME","CLASSIFICATION_TYPE":"U","SITE":"AFETR","APOAPSIS":"548.405","CENTER_NAME":"EARTH","EPOCH":"2022-02-19T20:25:09.475104","MEAN_MOTION_DOT":"-0.00000374","ARG_OF_PERICENTER":"58.0693","ELEMENT_SET_NO":"999","EPHEMERIS_TYPE":"0","LAUNCH_DATE":"2021-05-09","TIME_SYSTEM":"UTC","COUNTRY_CODE":"US","RA_OF_ASC_NODE":"345.3822","MEAN_ANOMALY":"302.0463","OBJECT_ID":"2021-040A","OBJECT_NAME":"STARLINK-2461","BSTAR":"-0.00000620320000","INCLINATION":"53.0562","PERIAPSIS":"546.026","MEAN_MOTION":"15.06399387","TLE_LINE1":"1 48428U 21040A   22050.85080411 -.00000374  00000-0 -62032-5 0  9993"},{"LAUNCH_DATE":"2021-05-09","TIME_SYSTEM":"UTC","EPHEMERIS_TYPE":"0","RA_OF_ASC_NODE":"315.0914","COUNTRY_CODE":"US","OBJECT_NAME":"STARLINK-2749","OBJECT_ID":"2021-040B","MEAN_ANOMALY":"92.1742","MEAN_MOTION":"15.06402750","TLE_LINE1":"1 48429U 21040B   22050.91667824 -.00018632  00000-0 -12351-2 0  9992","PERIAPSIS":"546.136","INCLINATION":"53.0560","BSTAR":"-0.00123510000000","CENTER_NAME":"EARTH","APOAPSIS":"548.274","MEAN_MOTION_DOT":"-0.00018632","EPOCH":"2022-02-19T22:00:00.999936","ARG_OF_PERICENTER":"75.4701","ELEMENT_SET_NO":"999","REV_AT_EPOCH":"357","SEMIMAJOR_AXIS":"6925.340","ECCENTRICITY":"0.00015440","DECAY_DATE":null,"MEAN_MOTION_DDOT":"0.0000000000000","OBJECT_TYPE":"PAYLOAD","SITE":"AFETR","REF_FRAME":"TEME","CLASSIFICATION_TYPE":"U","TLE_LINE2":"2 48429  53.0560 315.0914 0001544  75.4701  92.1742 15.06402750  3579","FILE":"3308986","RCS_SIZE":"LARGE","GP_ID":"196428417","PERIOD":"95.592","NORAD_CAT_ID":"48429","MEAN_ELEMENT_THEORY":"SGP4"},{"PERIOD":"95.586","GP_ID":"196427168","NORAD_CAT_ID":"48430","MEAN_ELEMENT_THEORY":"SGP4","TLE_LINE2":"2 48430  53.0539 315.0903 0001267  67.7221 279.9364 15.06489369  3574","RCS_SIZE":"LARGE","FILE":"3308986","OBJECT_TYPE":"PAYLOAD","MEAN_MOTION_DDOT":"0.0000000000000","REF_FRAME":"TEME","CLASSIFICATION_TYPE":"U","SITE":"AFETR","SEMIMAJOR_AXIS":"6925.075","REV_AT_EPOCH":"357","DECAY_DATE":null,"ECCENTRICITY":"0.00012670","EPOCH":"2022-02-19T22:00:00.999936","MEAN_MOTION_DOT":"-0.00258274","ARG_OF_PERICENTER":"67.7221","ELEMENT_SET_NO":"999","APOAPSIS":"547.817","CENTER_NAME":"EARTH","MEAN_ANOMALY":"279.9364","OBJECT_ID":"2021-040C","OBJECT_NAME":"STARLINK-2729","INCLINATION":"53.0539","BSTAR":"-0.01791600000000","PERIAPSIS":"546.062","MEAN_MOTION":"15.06489369","TLE_LINE1":"1 48430U 21040C   22050.91667824 -.00258274  00000-0 -17916-1 0  9993","EPHEMERIS_TYPE":"0","TIME_SYSTEM":"UTC","LAUNCH_DATE":"2021-05-09","COUNTRY_CODE":"US","RA_OF_ASC_NODE":"315.0903"},{"OBJECT_NAME":"STARLINK-2700","MEAN_ANOMALY":"198.9792","OBJECT_ID":"2021-040D","TLE_LINE1":"1 48431U 21040D   22050.91667824 -.00017503  00000-0 -11594-2 0  9999","MEAN_MOTION":"15.06386811","PERIAPSIS":"546.181","INCLINATION":"53.0549","BSTAR":"-0.00115940000000","TIME_SYSTEM":"UTC","LAUNCH_DATE":"2021-05-09","EPHEMERIS_TYPE":"0","RA_OF_ASC_NODE":"310.0829","COUNTRY_CODE":"US","MEAN_MOTION_DOT":"-0.00017503","EPOCH":"2022-02-19T22:00:00.999936","ELEMENT_SET_NO":"999","ARG_OF_PERICENTER":"76.2298","CENTER_NAME":"EARTH","APOAPSIS":"548.327","MEAN_MOTION_DDOT":"0.0000000000000","OBJECT_TYPE":"PAYLOAD","SITE":"AFETR","CLASSIFICATION_TYPE":"U","REF_FRAME":"TEME","REV_AT_EPOCH":"357","SEMIMAJOR_AXIS":"6925.389","ECCENTRICITY":"0.00015500","DECAY_DATE":null,"GP_ID":"196427416","PERIOD":"95.593","NORAD_CAT_ID":"48431","MEAN_ELEMENT_THEORY":"SGP4","TLE_LINE2":"2 48431  53.0549 310.0829 0001550  76.2298 198.9792 15.06386811  3575","FILE":"3308986","RCS_SIZE":"LARGE"},{"ELEMENT_SET_NO":"999","ARG_OF_PERICENTER":"76.4586","EPOCH":"2022-02-19T22:00:00.999936","MEAN_MOTION_DOT":"-0.00018162","CENTER_NAME":"EARTH","APOAPSIS":"548.124","MEAN_MOTION":"15.06400461","TLE_LINE1":"1 48432U 21040E   22050.91667824 -.00018162  00000-0 -12035-2 0  9993","BSTAR":"-0.00120350000000","INCLINATION":"53.0551","PERIAPSIS":"546.301","OBJECT_ID":"2021-040E","MEAN_ANOMALY":"146.1924","OBJECT_NAME":"STARLINK-2680","COUNTRY_CODE":"US","RA_OF_ASC_NODE":"305.0933","TIME_SYSTEM":"UTC","LAUNCH_DATE":"2021-05-09","EPHEMERIS_TYPE":"0","NORAD_CAT_ID":"48432","MEAN_ELEMENT_THEORY":"SGP4","GP_ID":"196428664","PERIOD":"95.592","FILE":"3308986","RCS_SIZE":"LARGE","TLE_LINE2":"2 48432  53.0551 305.0933 0001316  76.4586 146.1924 15.06400461  3571","SITE":"AFETR","CLASSIFICATION_TYPE":"U","REF_FRAME":"TEME","MEAN_MOTION_DDOT":"0.0000000000000","OBJECT_TYPE":"PAYLOAD","DECAY_DATE":null,"ECCENTRICITY":"0.00013160","REV_AT_EPOCH":"357","SEMIMAJOR_AXIS":"6925.347"},{"MEAN_MOTION_DDOT":"0.0000000000000","OBJECT_TYPE":"PAYLOAD","SITE":"AFETR","REF_FRAME":"TEME","CLASSIFICATION_TYPE":"U","REV_AT_EPOCH":"357","SEMIMAJOR_AXIS":"6925.327","DECAY_DATE":null,"ECCENTRICITY":"0.00013780","GP_ID":"196428918","PERIOD":"95.592","NORAD_CAT_ID":"48433","MEAN_ELEMENT_THEORY":"SGP4","TLE_LINE2":"2 48433  53.0548 310.0847 0001378  87.1293   8.0370 15.06406909  3574","FILE":"3308986","RCS_SIZE":"LARGE","MEAN_ANOMALY":"8.0370","OBJECT_ID":"2021-040F","OBJECT_NAME":"STARLINK-2699","MEAN_MOTION":"15.06406909","TLE_LINE1":"1 48433U 21040F   22050.91667824 -.00032816  00000-0 -21939-2 0  9999","INCLINATION":"53.0548","BSTAR":"-0.00219390000000","PERIAPSIS":"546.238","TIME_SYSTEM":"UTC","LAUNCH_DATE":"2021-05-09","EPHEMERIS_TYPE":"0","COUNTRY_CODE":"US","RA_OF_ASC_NODE":"310.0847","EPOCH":"2022-02-19T22:00:00.999936","MEAN_MOTION_DOT":"-0.00032816","ELEMENT_SET_NO":"999","ARG_OF_PERICENTER":"87.1293","CENTER_NAME":"EARTH","APOAPSIS":"548.147"},{"OBJECT_NAME":"STARLINK-2692","MEAN_ANOMALY":"320.3581","OBJECT_ID":"2021-040G","TLE_LINE1":"1 48434U 21040G   22050.91667824 -.00028325  00000-0 -18898-2 0  9990","MEAN_MOTION":"15.06409091","PERIAPSIS":"546.224","BSTAR":"-0.00188980000000","INCLINATION":"53.0543","TIME_SYSTEM":"UTC","LAUNCH_DATE":"2021-05-09","EPHEMERIS_TYPE":"0","RA_OF_ASC_NODE":"315.0943","COUNTRY_CODE":"US","MEAN_MOTION_DOT":"-0.00028325","EPOCH":"2022-02-19T22:00:00.999936","ARG_OF_PERICENTER":"87.2999","ELEMENT_SET_NO":"999","CENTER_NAME":"EARTH","APOAPSIS":"548.147","MEAN_MOTION_DDOT":"0.0000000000000","OBJECT_TYPE":"PAYLOAD","SITE":"AFETR","REF_FRAME":"TEME","CLASSIFICATION_TYPE":"U","REV_AT_EPOCH":"358","SEMIMAJOR_AXIS":"6925.321","ECCENTRICITY":"0.00013880","DECAY_DATE":null,"GP_ID":"196427669","PERIOD":"95.592","NORAD_CAT_ID":"48434","MEAN_ELEMENT_THEORY":"SGP4","TLE_LINE2":"2 48434  53.0543 315.0943 0001388  87.2999 320.3581 15.06409091  3587","FILE":"3308986","RCS_SIZE":"LARGE"},{"APOAPSIS":"553.487","CENTER_NAME":"EARTH","EPOCH":"2022-02-19T22:13:50.517696","MEAN_MOTION_DOT":"-0.00000018","ARG_OF_PERICENTER":"59.4445","ELEMENT_SET_NO":"999","EPHEMERIS_TYPE":"0","LAUNCH_DATE":"2021-05-09","TIME_SYSTEM":"UTC","COUNTRY_CODE":"US","RA_OF_ASC_NODE":"324.6543","MEAN_ANOMALY":"300.6727","OBJECT_ID":"2021-040H","OBJECT_NAME":"STARLINK-2633","INCLINATION":"53.0555","BSTAR":"0.00001820600000","PERIAPSIS":"550.908","TLE_LINE1":"1 48435U 21040H   22050.92627914 -.00000018  00000-0  18206-4 0  9991","MEAN_MOTION":"15.04775376","TLE_LINE2":"2 48435  53.0555 324.6543 0001861  59.4445 300.6727 15.04775376 43954","RCS_SIZE":"LARGE","FILE":"3308986","PERIOD":"95.695","GP_ID":"196427917","MEAN_ELEMENT_THEORY":"SGP4","NORAD_CAT_ID":"48435","SEMIMAJOR_AXIS":"6930.332","REV_AT_EPOCH":"4395","DECAY_DATE":null,"ECCENTRICITY":"0.00018610","OBJECT_TYPE":"PAYLOAD","MEAN_MOTION_DDOT":"0.0000000000000","REF_FRAME":"TEME","CLASSIFICATION_TYPE":"U","SITE":"AFETR"},{"PERIOD":"95.593","GP_ID":"196428164","MEAN_ELEMENT_THEORY":"SGP4","NORAD_CAT_ID":"48436","TLE_LINE2":"2 48436  53.0553 340.5174 0001587  56.0301 304.0839 15.06390452 43726","RCS_SIZE":"LARGE","FILE":"3308986","OBJECT_TYPE":"PAYLOAD","MEAN_MOTION_DDOT":"0.0000000000000","REF_FRAME":"TEME","CLASSIFICATION_TYPE":"U","SITE":"AFETR","SEMIMAJOR_AXIS":"6925.378","REV_AT_EPOCH":"4372","DECAY_DATE":null,"ECCENTRICITY":"0.00015870","EPOCH":"2022-02-19T19:40:42.295008","MEAN_MOTION_DOT":"-0.00002744","ARG_OF_PERICENTER":"56.0301","ELEMENT_SET_NO":"999","APOAPSIS":"548.342","CENTER_NAME":"EARTH","MEAN_ANOMALY":"304.0839","OBJECT_ID":"2021-040J","OBJECT_NAME":"STARLINK-2639","INCLINATION":"53.0553","BSTAR":"-0.00016542000000","PERIAPSIS":"546.144","MEAN_MOTION":"15.06390452","TLE_LINE1":"1 48436U 21040J   22050.81993397 -.00002744  00000-0 -16542-3 0  9990","EPHEMERIS_TYPE":"0","LAUNCH_DATE":"2021-05-09","TIME_SYSTEM":"UTC","COUNTRY_CODE":"US","RA_OF_ASC_NODE":"340.5174"}];
